<?xml version="1.0" encoding="UTF-8"?>
<ndm xmlns:xsi="http://www.w3.org/2001/XMLSchema-instance" xsi:noNamespaceSchemaLocation="https://sanaregistry.org/r/ndmxml_unqualified/ndmxml-2.0.0-master-2.0.xsd">
<omm id="CCSDS_OMM_VERS" version="2.0">
<header><CREATION_DATE/><ORIGINATOR/></header><body><segment><metadata><OBJECT_NAME>ORBCOMM FM20</OBJECT_NAME><OBJECT_ID>1998-046D</OBJECT_ID><CENTER_NAME>EARTH</CENTER_NAME><REF_FRAME>TEME</REF_FRAME><TIME_SYSTEM>UTC</TIME_SYSTEM><MEAN_ELEMENT_THEORY>SGP4</MEAN_ELEMENT_THEORY></metadata><data><meanElements><EPOCH>2025-04-15T11:39:10.867680</EPOCH><MEAN_MOTION>14.37053424</MEAN_MOTION><ECCENTRICITY>.0002801</ECCENTRICITY><INCLINATION>44.9930</INCLINATION><RA_OF_ASC_NODE>118.1791</RA_OF_ASC_NODE><ARG_OF_PERICENTER>290.8241</ARG_OF_PERICENTER><MEAN_ANOMALY>69.2307</MEAN_ANOMALY></meanElements><tleParameters><EPHEMERIS_TYPE>0</EPHEMERIS_TYPE><CLASSIFICATION_TYPE>U</CLASSIFICATION_TYPE><NORAD_CAT_ID>25416</NORAD_CAT_ID><ELEMENT_SET_NO>999</ELEMENT_SET_NO><REV_AT_EPOCH>39528</REV_AT_EPOCH><BSTAR>.62507E-3</BSTAR><MEAN_MOTION_DOT>.173E-4</MEAN_MOTION_DOT><MEAN_MOTION_DDOT>0</MEAN_MOTION_DDOT></tleParameters></data></segment></body></omm>
<omm id="CCSDS_OMM_VERS" version="2.0">
<header><CREATION_DATE/><ORIGINATOR/></header><body><segment><metadata><OBJECT_NAME>ORBCOMM FM16</OBJECT_NAME><OBJECT_ID>1998-046E</OBJECT_ID><CENTER_NAME>EARTH</CENTER_NAME><REF_FRAME>TEME</REF_FRAME><TIME_SYSTEM>UTC</TIME_SYSTEM><MEAN_ELEMENT_THEORY>SGP4</MEAN_ELEMENT_THEORY></metadata><data><meanElements><EPOCH>2025-04-15T13:18:47.720736</EPOCH><MEAN_MOTION>14.38691109</MEAN_MOTION><ECCENTRICITY>.0006066</ECCENTRICITY><INCLINATION>44.9915</INCLINATION><RA_OF_ASC_NODE>110.2327</RA_OF_ASC_NODE><ARG_OF_PERICENTER>322.9554</ARG_OF_PERICENTER><MEAN_ANOMALY>37.0875</MEAN_ANOMALY></meanElements><tleParameters><EPHEMERIS_TYPE>0</EPHEMERIS_TYPE><CLASSIFICATION_TYPE>U</CLASSIFICATION_TYPE><NORAD_CAT_ID>25417</NORAD_CAT_ID><ELEMENT_SET_NO>999</ELEMENT_SET_NO><REV_AT_EPOCH>39545</REV_AT_EPOCH><BSTAR>.92208E-3</BSTAR><MEAN_MOTION_DOT>.2713E-4</MEAN_MOTION_DOT><MEAN_MOTION_DDOT>0</MEAN_MOTION_DDOT></tleParameters></data></segment></body></omm>
<omm id="CCSDS_OMM_VERS" version="2.0">
<header><CREATION_DATE/><ORIGINATOR/></header><body><segment><metadata><OBJECT_NAME>ORBCOMM FM15</OBJECT_NAME><OBJECT_ID>1998-046F</OBJECT_ID><CENTER_NAME>EARTH</CENTER_NAME><REF_FRAME>TEME</REF_FRAME><TIME_SYSTEM>UTC</TIME_SYSTEM><MEAN_ELEMENT_THEORY>SGP4</MEAN_ELEMENT_THEORY></metadata><data><meanElements><EPOCH>2025-04-15T12:22:17.291424</EPOCH><MEAN_MOTION>14.38344918</MEAN_MOTION><ECCENTRICITY>.0005604</ECCENTRICITY><INCLINATION>44.9948</INCLINATION><RA_OF_ASC_NODE>115.3776</RA_OF_ASC_NODE><ARG_OF_PERICENTER>321.1122</ARG_OF_PERICENTER><MEAN_ANOMALY>38.9322</MEAN_ANOMALY></meanElements><tleParameters><EPHEMERIS_TYPE>0</EPHEMERIS_TYPE><CLASSIFICATION_TYPE>U</CLASSIFICATION_TYPE><NORAD_CAT_ID>25418</NORAD_CAT_ID><ELEMENT_SET_NO>999</ELEMENT_SET_NO><REV_AT_EPOCH>39522</REV_AT_EPOCH><BSTAR>.76862E-3</BSTAR><MEAN_MOTION_DOT>.2221E-4</MEAN_MOTION_DOT><MEAN_MOTION_DDOT>0</MEAN_MOTION_DDOT></tleParameters></data></segment></body></omm>
<omm id="CCSDS_OMM_VERS" version="2.0">
<header><CREATION_DATE/><ORIGINATOR/></header><body><segment><metadata><OBJECT_NAME>ORBCOMM FM14</OBJECT_NAME><OBJECT_ID>1998-046G</OBJECT_ID><CENTER_NAME>EARTH</CENTER_NAME><REF_FRAME>TEME</REF_FRAME><TIME_SYSTEM>UTC</TIME_SYSTEM><MEAN_ELEMENT_THEORY>SGP4</MEAN_ELEMENT_THEORY></metadata><data><meanElements><EPOCH>2025-04-15T09:50:13.696800</EPOCH><MEAN_MOTION>14.38688850</MEAN_MOTION><ECCENTRICITY>.0004785</ECCENTRICITY><INCLINATION>44.9936</INCLINATION><RA_OF_ASC_NODE>114.2932</RA_OF_ASC_NODE><ARG_OF_PERICENTER>312.0061</ARG_OF_PERICENTER><MEAN_ANOMALY>48.0380</MEAN_ANOMALY></meanElements><tleParameters><EPHEMERIS_TYPE>0</EPHEMERIS_TYPE><CLASSIFICATION_TYPE>U</CLASSIFICATION_TYPE><NORAD_CAT_ID>25419</NORAD_CAT_ID><ELEMENT_SET_NO>999</ELEMENT_SET_NO><REV_AT_EPOCH>39517</REV_AT_EPOCH><BSTAR>.86314E-3</BSTAR><MEAN_MOTION_DOT>.2531E-4</MEAN_MOTION_DOT><MEAN_MOTION_DDOT>0</MEAN_MOTION_DDOT></tleParameters></data></segment></body></omm>
<omm id="CCSDS_OMM_VERS" version="2.0">
<header><CREATION_DATE/><ORIGINATOR/></header><body><segment><metadata><OBJECT_NAME>ORBCOMM FM13</OBJECT_NAME><OBJECT_ID>1998-046H</OBJECT_ID><CENTER_NAME>EARTH</CENTER_NAME><REF_FRAME>TEME</REF_FRAME><TIME_SYSTEM>UTC</TIME_SYSTEM><MEAN_ELEMENT_THEORY>SGP4</MEAN_ELEMENT_THEORY></metadata><data><meanElements><EPOCH>2025-04-15T09:37:12.325440</EPOCH><MEAN_MOTION>14.37490925</MEAN_MOTION><ECCENTRICITY>.000684</ECCENTRICITY><INCLINATION>44.9948</INCLINATION><RA_OF_ASC_NODE>121.7113</RA_OF_ASC_NODE><ARG_OF_PERICENTER>308.3079</ARG_OF_PERICENTER><MEAN_ANOMALY>51.7153</MEAN_ANOMALY></meanElements><tleParameters><EPHEMERIS_TYPE>0</EPHEMERIS_TYPE><CLASSIFICATION_TYPE>U</CLASSIFICATION_TYPE><NORAD_CAT_ID>25420</NORAD_CAT_ID><ELEMENT_SET_NO>999</ELEMENT_SET_NO><REV_AT_EPOCH>39420</REV_AT_EPOCH><BSTAR>.73443E-3</BSTAR><MEAN_MOTION_DOT>.2078E-4</MEAN_MOTION_DOT><MEAN_MOTION_DDOT>0</MEAN_MOTION_DDOT></tleParameters></data></segment></body></omm>
<omm id="CCSDS_OMM_VERS" version="2.0">
<header><CREATION_DATE/><ORIGINATOR/></header><body><segment><metadata><OBJECT_NAME>ORBCOMM FM22</OBJECT_NAME><OBJECT_ID>1998-053B</OBJECT_ID><CENTER_NAME>EARTH</CENTER_NAME><REF_FRAME>TEME</REF_FRAME><TIME_SYSTEM>UTC</TIME_SYSTEM><MEAN_ELEMENT_THEORY>SGP4</MEAN_ELEMENT_THEORY></metadata><data><meanElements><EPOCH>2025-04-15T13:03:58.713984</EPOCH><MEAN_MOTION>14.38191012</MEAN_MOTION><ECCENTRICITY>.0004805</ECCENTRICITY><INCLINATION>45.0062</INCLINATION><RA_OF_ASC_NODE>201.4649</RA_OF_ASC_NODE><ARG_OF_PERICENTER>253.1549</ARG_OF_PERICENTER><MEAN_ANOMALY>106.8773</MEAN_ANOMALY></meanElements><tleParameters><EPHEMERIS_TYPE>0</EPHEMERIS_TYPE><CLASSIFICATION_TYPE>U</CLASSIFICATION_TYPE><NORAD_CAT_ID>25476</NORAD_CAT_ID><ELEMENT_SET_NO>999</ELEMENT_SET_NO><REV_AT_EPOCH>38825</REV_AT_EPOCH><BSTAR>.79458E-3</BSTAR><MEAN_MOTION_DOT>.2294E-4</MEAN_MOTION_DOT><MEAN_MOTION_DDOT>0</MEAN_MOTION_DDOT></tleParameters></data></segment></body></omm>
<omm id="CCSDS_OMM_VERS" version="2.0">
<header><CREATION_DATE/><ORIGINATOR/></header><body><segment><metadata><OBJECT_NAME>ORBCOMM FM23</OBJECT_NAME><OBJECT_ID>1998-053C</OBJECT_ID><CENTER_NAME>EARTH</CENTER_NAME><REF_FRAME>TEME</REF_FRAME><TIME_SYSTEM>UTC</TIME_SYSTEM><MEAN_ELEMENT_THEORY>SGP4</MEAN_ELEMENT_THEORY></metadata><data><meanElements><EPOCH>2025-04-15T12:58:42.720672</EPOCH><MEAN_MOTION>14.37361918</MEAN_MOTION><ECCENTRICITY>.0003909</ECCENTRICITY><INCLINATION>45.0071</INCLINATION><RA_OF_ASC_NODE>208.3419</RA_OF_ASC_NODE><ARG_OF_PERICENTER>246.4898</ARG_OF_PERICENTER><MEAN_ANOMALY>113.5539</MEAN_ANOMALY></meanElements><tleParameters><EPHEMERIS_TYPE>0</EPHEMERIS_TYPE><CLASSIFICATION_TYPE>U</CLASSIFICATION_TYPE><NORAD_CAT_ID>25477</NORAD_CAT_ID><ELEMENT_SET_NO>999</ELEMENT_SET_NO><REV_AT_EPOCH>38838</REV_AT_EPOCH><BSTAR>.77866E-3</BSTAR><MEAN_MOTION_DOT>.2205E-4</MEAN_MOTION_DOT><MEAN_MOTION_DDOT>0</MEAN_MOTION_DDOT></tleParameters></data></segment></body></omm>

</ndm>
