ORBCOMM FM20            
1 25416U 98046D   25105.48554245  .00001730  00000+0  62507-3 0  9998
2 25416  44.9930 118.1791 0002801 290.8241  69.2307 14.37053424395281
ORBCOMM FM16            
1 25417U 98046E   25105.55471899  .00002713  00000+0  92208-3 0  9993
2 25417  44.9915 110.2327 0006066 322.9554  37.0875 14.38691109395455
ORBCOMM FM15            
1 25418U 98046F   25105.51547791  .00002221  00000+0  76862-3 0  9997
2 25418  44.9948 115.3776 0005604 321.1122  38.9322 14.38344918395220
ORBCOMM FM14            
1 25419U 98046G   25105.40988075  .00002531  00000+0  86314-3 0  9997
2 25419  44.9936 114.2932 0004785 312.0061  48.0380 14.38688850395176
ORBCOMM FM13            
1 25420U 98046H   25105.40083710  .00002078  00000+0  73443-3 0  9996
2 25420  44.9948 121.7113 0006840 308.3079  51.7153 14.37490925394201
ORBCOMM FM22            
1 25476U 98053B   25105.54442956  .00002294  00000+0  79458-3 0  9993
2 25476  45.0062 201.4649 0004805 253.1549 106.8773 14.38191012388253
ORBCOMM FM23            
1 25477U 98053C   25105.54077223  .00002205  00000+0  77866-3 0  9998
2 25477  45.0071 208.3419 0003909 246.4898 113.5539 14.37361918388383
